{"spkid": "50819688", "covariance": {"epoch": "2458256.5", "labels": ["e", "q", "tp", "node", "peri", "i"], "data": [["9.361560640656568E-14", "-4.286400660506426E-14", "2.997429892874226E-12", "-2.804794623622375E-12", "6.885554570179473E-12", "1.002944829440084E-11"], ["-4.286400660506426E-14", "3.79248658188631E-14", "-3.580811278515278E-12", "1.550943631178259E-12", "-6.6975836683971E-12", "-5.450046931478941E-12"], ["2.997429892874226E-12", "-3.580811278515278E-12", "9.891084992365316E-10", "-4.47428793581772E-10", "1.208619475355602E-9", "1.544373112891213E-9"], ["-2.804794623622375E-12", "1.550943631178259E-12", "-4.47428793581772E-10", "4.642939568404103E-10", "-6.8824185623517E-10", "-1.388311712430643E-9"], ["6.885554570179473E-12", "-6.6975836683971E-12", "1.208619475355602E-9", "-6.8824185623517E-10", "1.825014601360237E-9", "2.205132509989403E-9"], ["1.002944829440084E-11", "-5.450046931478941E-12", "1.544373112891213E-9", "-1.388311712430643E-9", "2.205132509989403E-9", "4.649343707646909E-9"]], "elements": [{"sigma": 3.05966675320313e-07, "name": "e", "units": null, "title": "eccentricity", "value": ".4678127358896254", "label": "e"}, {"sigma": 1.94743076433703e-07, "name": "q", "units": "au", "value": ".8892896335736988", "title": "perihelion distance", "label": "q"}, {"label": "tp", "units": "TDB", "value": "2458293.627811879739", "title": "time of perihelion passage", "sigma": 3.14500953772247e-05, "name": "tp"}, {"label": "node", "title": "longitude of the ascending node", "value": "45.93062505651023", "units": "deg", "name": "om", "sigma": 2.15474814500537e-05}, {"label": "peri", "title": "argument of perihelion", "value": "233.1532914904949", "units": "deg", "sigma": 4.27201896222411e-05, "name": "w"}, {"units": "deg", "title": "inclination", "value": "33.46348418545201", "name": "i", "sigma": 6.81860961461126e-05, "label": "i"}]}, "elements": [{"name": "e", "sigma": "3.0541E-7", "units": null, "value": ".4678596170797317", "title": "eccentricity", "label": "e"}, {"label": "a", "value": "1.671061590510497", "title": "semi-major axis", "units": "au", "sigma": "7.4171E-7", "name": "a"}, {"name": "q", "sigma": "1.9488E-7", "value": ".8892393546576083", "title": "perihelion distance", "units": "au", "label": "q"}, {"label": "i", "units": "deg", "value": "33.44034750197907", "title": "inclination; angle with respect to x-y ecliptic plane", "name": "i", "sigma": "6.8192E-5"}, {"label": "node", "title": "longitude of the ascending node", "value": "45.86354074099293", "units": "deg", "name": "om", "sigma": "2.142E-5"}, {"label": "peri", "sigma": "4.2463E-5", "name": "w", "units": "deg", "title": "argument of perihelion", "value": "233.2288432898909"}, {"label": "M", "title": "mean anomaly", "value": "246.4139557682198", "units": "deg", "name": "ma", "sigma": ".00088293"}, {"value": "2461449.448541726164", "title": "time of perihelion passage", "units": "TDB", "name": "tp", "sigma": ".0021008", "label": "tp"}, {"value": "789.0183660110581", "title": "sidereal orbital period", "units": "d", "name": "per", "sigma": ".00052531", "label": "period"}, {"title": "mean motion", "value": ".4562631435564766", "units": "deg/d", "sigma": "3.0377E-7", "name": "n", "label": "n"}, {"label": "Q", "units": "au", "value": "2.452883826363386", "title": "aphelion distance", "sigma": "1.0887E-6", "name": "ad"}], "epoch": "2461200.5"}